{
  "type": "FeatureCollection",
  "features": [
    {
      "type": "Feature",
      "properties": {
        "norad_id": 30546,
        "name": "FENGYUN 1C DEB",
        "group": "fengyun-1c-debris",
        "lat": -54.219669425195576,
        "lon": 11.952436676807919,
        "alt_km": 599.2968798869979,
        "timestamp": "2025-12-14T07:33:19.754941+00:00",
        "meta_object_name": "FENGYUN 1C DEB",
        "meta_object_id": "1999-025AKL",
        "meta_epoch": "2025-12-13T08:41:12.379776",
        "meta_mean_motion": 14.87173727,
        "meta_eccentricity": 0.00925295,
        "meta_inclination": 98.9089,
        "meta_ra_of_asc_node": 203.4553,
        "meta_arg_of_pericenter": 160.5158,
        "meta_mean_anomaly": 15.1105,
        "meta_ephemeris_type": 0,
        "meta_classification_type": "U",
        "meta_norad_cat_id": 30546,
        "meta_element_set_no": 999,
        "meta_rev_at_epoch": 466,
        "meta_bstar": 0.0014060377,
        "meta_mean_motion_dot": 0.00013628,
        "meta_mean_motion_ddot": 0,
        "tle_line1": "1 30546U 99025AKL 25347.36194884  .00013628  00000+0  14060-2 0  9999",
        "tle_line2": "2 30546  98.9089 203.4553 0092529 160.5158  15.1105 14.87173727  4664"
      },
      "geometry": {
        "type": "Point",
        "coordinates": [
          11.952436676807919,
          -54.219669425195576
        ]
      }
    },
    {
      "type": "Feature",
      "properties": {
        "norad_id": 30547,
        "name": "FENGYUN 1C DEB",
        "group": "fengyun-1c-debris",
        "lat": 27.76781503304926,
        "lon": -173.36547242548335,
        "alt_km": 832.505487410057,
        "timestamp": "2025-12-14T07:33:19.754952+00:00",
        "meta_object_name": "FENGYUN 1C DEB",
        "meta_object_id": "1999-025AKM",
        "meta_epoch": "2025-12-13T13:22:11.864064",
        "meta_mean_motion": 14.37752345,
        "meta_eccentricity": 0.00951889,
        "meta_inclination": 98.9021,
        "meta_ra_of_asc_node": 190.5837,
        "meta_arg_of_pericenter": 215.0054,
        "meta_mean_anomaly": 213.4329,
        "meta_ephemeris_type": 0,
        "meta_classification_type": "U",
        "meta_norad_cat_id": 30547,
        "meta_element_set_no": 999,
        "meta_rev_at_epoch": 98734,
        "meta_bstar": 0.00039318428,
        "meta_mean_motion_dot": 1.197e-05,
        "meta_mean_motion_ddot": 0,
        "tle_line1": "1 30547U 99025AKM 25347.55708176  .00001197  00000+0  39318-3 0  9998",
        "tle_line2": "2 30547  98.9021 190.5837 0095188 215.0054 213.4329 14.37752345987347"
      },
      "geometry": {
        "type": "Point",
        "coordinates": [
          -173.36547242548335,
          27.76781503304926
        ]
      }
    },
    {
      "type": "Feature",
      "properties": {
        "norad_id": 30548,
        "name": "FENGYUN 1C DEB",
        "group": "fengyun-1c-debris",
        "lat": -40.74685331014851,
        "lon": 57.485257590895124,
        "alt_km": 824.826151619046,
        "timestamp": "2025-12-14T07:33:19.754962+00:00",
        "meta_object_name": "FENGYUN 1C DEB",
        "meta_object_id": "1999-025AKN",
        "meta_epoch": "2025-12-10T12:13:24.269952",
        "meta_mean_motion": 14.26844945,
        "meta_eccentricity": 0.00687565,
        "meta_inclination": 99.6812,
        "meta_ra_of_asc_node": 241.7363,
        "meta_arg_of_pericenter": 341.7334,
        "meta_mean_anomaly": 143.2043,
        "meta_ephemeris_type": 0,
        "meta_classification_type": "U",
        "meta_norad_cat_id": 30548,
        "meta_element_set_no": 999,
        "meta_rev_at_epoch": 14063,
        "meta_bstar": 0.003249128,
        "meta_mean_motion_dot": 8.037e-05,
        "meta_mean_motion_ddot": 0,
        "tle_line1": "1 30548U 99025AKN 25344.50930868  .00008037  00000+0  32491-2 0  9990",
        "tle_line2": "2 30548  99.6812 241.7363 0068756 341.7334 143.2043 14.26844945140638"
      },
      "geometry": {
        "type": "Point",
        "coordinates": [
          57.485257590895124,
          -40.74685331014851
        ]
      }
    },
    {
      "type": "Feature",
      "properties": {
        "norad_id": 30549,
        "name": "FENGYUN 1C DEB",
        "group": "fengyun-1c-debris",
        "lat": -69.69214796128877,
        "lon": -95.13738121017121,
        "alt_km": 696.008162621325,
        "timestamp": "2025-12-14T07:33:19.754975+00:00",
        "meta_object_name": "FENGYUN 1C DEB",
        "meta_object_id": "1999-025AKP",
        "meta_epoch": "2025-12-03T07:39:14.923872",
        "meta_mean_motion": 13.98584639,
        "meta_eccentricity": 0.0288262,
        "meta_inclination": 98.4796,
        "meta_ra_of_asc_node": 98.4482,
        "meta_arg_of_pericenter": 283.4344,
        "meta_mean_anomaly": 73.4847,
        "meta_ephemeris_type": 0,
        "meta_classification_type": "U",
        "meta_norad_cat_id": 30549,
        "meta_element_set_no": 999,
        "meta_rev_at_epoch": 95162,
        "meta_bstar": 0.0024216,
        "meta_mean_motion_dot": 4.917e-05,
        "meta_mean_motion_ddot": 0,
        "tle_line1": "1 30549U 99025AKP 25337.31892273  .00004917  00000+0  24216-2 0  9998",
        "tle_line2": "2 30549  98.4796  98.4482 0288262 283.4344  73.4847 13.98584639951629"
      },
      "geometry": {
        "type": "Point",
        "coordinates": [
          -95.13738121017121,
          -69.69214796128877
        ]
      }
    },
    {
      "type": "Feature",
      "properties": {
        "norad_id": 30550,
        "name": "FENGYUN 1C DEB",
        "group": "fengyun-1c-debris",
        "lat": 71.17966895145365,
        "lon": -144.28993172716844,
        "alt_km": 952.4254890500679,
        "timestamp": "2025-12-14T07:33:19.754985+00:00",
        "meta_object_name": "FENGYUN 1C DEB",
        "meta_object_id": "1999-025AKQ",
        "meta_epoch": "2025-12-12T15:58:06.352320",
        "meta_mean_motion": 14.02396955,
        "meta_eccentricity": 0.01327932,
        "meta_inclination": 99.053,
        "meta_ra_of_asc_node": 241.9619,
        "meta_arg_of_pericenter": 297.5218,
        "meta_mean_anomaly": 91.9516,
        "meta_ephemeris_type": 0,
        "meta_classification_type": "U",
        "meta_norad_cat_id": 30550,
        "meta_element_set_no": 999,
        "meta_rev_at_epoch": 95394,
        "meta_bstar": 0.0042392832,
        "meta_mean_motion_dot": 6.995e-05,
        "meta_mean_motion_ddot": 0,
        "tle_line1": "1 30550U 99025AKQ 25346.66535130  .00006995  00000+0  42393-2 0  9998",
        "tle_line2": "2 30550  99.0530 241.9619 0132793 297.5218  91.9516 14.02396955953947"
      },
      "geometry": {
        "type": "Point",
        "coordinates": [
          -144.28993172716844,
          71.17966895145365
        ]
      }
    },
    {
      "type": "Feature",
      "properties": {
        "norad_id": 30552,
        "name": "FENGYUN 1C DEB",
        "group": "fengyun-1c-debris",
        "lat": 18.09176580222218,
        "lon": 117.1583185467161,
        "alt_km": 717.1533982823466,
        "timestamp": "2025-12-14T07:33:19.754995+00:00",
        "meta_object_name": "FENGYUN 1C DEB",
        "meta_object_id": "1999-025AKS",
        "meta_epoch": "2025-12-13T01:45:34.488576",
        "meta_mean_motion": 14.54785743,
        "meta_eccentricity": 0.00147897,
        "meta_inclination": 98.8339,
        "meta_ra_of_asc_node": 118.7596,
        "meta_arg_of_pericenter": 250.8382,
        "meta_mean_anomaly": 109.1212,
        "meta_ephemeris_type": 0,
        "meta_classification_type": "U",
        "meta_norad_cat_id": 30552,
        "meta_element_set_no": 999,
        "meta_rev_at_epoch": 97657,
        "meta_bstar": 0.0046460153,
        "meta_mean_motion_dot": 0.00019951,
        "meta_mean_motion_ddot": 0,
        "tle_line1": "1 30552U 99025AKS 25347.07331584  .00019951  00000+0  46460-2 0  9998",
        "tle_line2": "2 30552  98.8339 118.7596 0014789 250.8382 109.1212 14.54785743976579"
      },
      "geometry": {
        "type": "Point",
        "coordinates": [
          117.1583185467161,
          18.09176580222218
        ]
      }
    },
    {
      "type": "Feature",
      "properties": {
        "norad_id": 30553,
        "name": "FENGYUN 1C DEB",
        "group": "fengyun-1c-debris",
        "lat": 5.619972078889424,
        "lon": -95.69499540271603,
        "alt_km": 642.8509890156756,
        "timestamp": "2025-12-14T07:33:19.755005+00:00",
        "meta_object_name": "FENGYUN 1C DEB",
        "meta_object_id": "1999-025AKT",
        "meta_epoch": "2025-12-13T04:40:18.692256",
        "meta_mean_motion": 14.72311491,
        "meta_eccentricity": 0.00205609,
        "meta_inclination": 99.1292,
        "meta_ra_of_asc_node": 82.1417,
        "meta_arg_of_pericenter": 150.1062,
        "meta_mean_anomaly": 210.132,
        "meta_ephemeris_type": 0,
        "meta_classification_type": "U",
        "meta_norad_cat_id": 30553,
        "meta_element_set_no": 999,
        "meta_rev_at_epoch": 98480,
        "meta_bstar": 0.0051371771,
        "meta_mean_motion_dot": 0.00032675,
        "meta_mean_motion_ddot": 0,
        "tle_line1": "1 30553U 99025AKT 25347.19466079  .00032675  00000+0  51372-2 0  9996",
        "tle_line2": "2 30553  99.1292  82.1417 0020560 150.1062 210.1320 14.72311491984802"
      },
      "geometry": {
        "type": "Point",
        "coordinates": [
          -95.69499540271603,
          5.619972078889424
        ]
      }
    }
  ]
}